{"type": "FeatureCollection", "features": [ {"type": "Feature", "properties": {"norad_id": 44476, "name": "INTELSAT 39 (IS-39)", "group": "intelsat", "lat": -0.03983992534547025, "lon": -137.5330476163199, "alt_km": 35785.55761403612, "timestamp": "2025-12-17T04:57:44.067862+00:00", "meta": {"OBJECT_NAME": "INTELSAT 39 (IS-39)", "OBJECT_ID": "2019-049B", "EPOCH": "2025-12-16T15:21:48.311136", "MEAN_MOTION": 1.00270803, "ECCENTRICITY": 0.00013758, "INCLINATION": 0.0182, "RA_OF_ASC_NODE": 330.6719, "ARG_OF_PERICENTER": 169.661, "MEAN_ANOMALY": 237.5916, "EPHEMERIS_TYPE": 0, "CLASSIFICATION_TYPE": "U", "NORAD_CAT_ID": 44476, "ELEMENT_SET_NO": 999, "REV_AT_EPOCH": 2329, "BSTAR": 0, "MEAN_MOTION_DOT": 5.7e-07, "MEAN_MOTION_DDOT": 0}, "tle": {"line1": "1 44476U 19049B   25350.64014249  .00000057  00000+0  00000+0 0  9993", "line2": "2 44476   0.0182 330.6719 0001375 169.6610 237.5916  1.00270803 23292"}}, "geometry": {"type": "Point", "coordinates": [-137.5330476163199, -0.03983992534547025]}}, {"type": "Feature", "properties": {"norad_id": 46114, "name": "GALAXY 30 (G-30)", "group": "intelsat", "lat": 0.02465515864582583, "lon": 35.52883780927109, "alt_km": 35791.89005379932, "timestamp": "2025-12-17T04:57:44.067873+00:00", "meta": {"OBJECT_NAME": "GALAXY 30 (G-30)", "OBJECT_ID": "2020-056C", "EPOCH": "2025-12-16T10:32:38.625216", "MEAN_MOTION": 1.00271809, "ECCENTRICITY": 0.00020504, "INCLINATION": 0.0174, "RA_OF_ASC_NODE": 8.9673, "ARG_OF_PERICENTER": 254.0657, "MEAN_ANOMALY": 215.4609, "EPHEMERIS_TYPE": 0, "CLASSIFICATION_TYPE": "U", "NORAD_CAT_ID": 46114, "ELEMENT_SET_NO": 999, "REV_AT_EPOCH": 1946, "BSTAR": 0, "MEAN_MOTION_DOT": 6e-07, "MEAN_MOTION_DDOT": 0}, "tle": {"line1": "1 46114U 20056C   25350.43933594  .00000060  00000+0  00000+0 0  9998", "line2": "2 46114   0.0174   8.9673 0002050 254.0657 215.4609  1.00271809 19464"}}, "geometry": {"type": "Point", "coordinates": [35.52883780927109, 0.02465515864582583]}}, {"type": "Feature", "properties": {"norad_id": 54026, "name": "GALAXY 33 (G-33)", "group": "intelsat", "lat": 0.025023883952341407, "lon": 27.53716301821829, "alt_km": 35790.13993614245, "timestamp": "2025-12-17T04:57:44.067883+00:00", "meta": {"OBJECT_NAME": "GALAXY 33 (G-33)", "OBJECT_ID": "2022-128A", "EPOCH": "2025-12-16T16:08:58.794144", "MEAN_MOTION": 1.00273301, "ECCENTRICITY": 0.00017622, "INCLINATION": 0.0159, "RA_OF_ASC_NODE": 355.4213, "ARG_OF_PERICENTER": 264.714, "MEAN_ANOMALY": 294.6799, "EPHEMERIS_TYPE": 0, "CLASSIFICATION_TYPE": "U", "NORAD_CAT_ID": 54026, "ELEMENT_SET_NO": 999, "REV_AT_EPOCH": 1191, "BSTAR": 0, "MEAN_MOTION_DOT": 1.03e-06, "MEAN_MOTION_DDOT": 0}, "tle": {"line1": "1 54026U 22128A   25350.67290271  .00000103  00000+0  00000+0 0  9993", "line2": "2 54026   0.0159 355.4213 0001762 264.7140 294.6799  1.00273301 11912"}}, "geometry": {"type": "Point", "coordinates": [27.53716301821829, 0.025023883952341407]}}, {"type": "Feature", "properties": {"norad_id": 54027, "name": "GALAXY 34 (G-34)", "group": "intelsat", "lat": 0.03950022952087216, "lon": 31.596140344002922, "alt_km": 35790.0944045398, "timestamp": "2025-12-17T04:57:44.067894+00:00", "meta": {"OBJECT_NAME": "GALAXY 34 (G-34)", "OBJECT_ID": "2022-128B", "EPOCH": "2025-12-16T10:54:44.613792", "MEAN_MOTION": 1.00271358, "ECCENTRICITY": 0.00014405, "INCLINATION": 0.0238, "RA_OF_ASC_NODE": 335.9527, "ARG_OF_PERICENTER": 285.2083, "MEAN_ANOMALY": 218.9464, "EPHEMERIS_TYPE": 0, "CLASSIFICATION_TYPE": "U", "NORAD_CAT_ID": 54027, "ELEMENT_SET_NO": 999, "REV_AT_EPOCH": 1208, "BSTAR": 0, "MEAN_MOTION_DOT": 0, "MEAN_MOTION_DDOT": 0}, "tle": {"line1": "1 54027U 22128B   25350.45468303  .00000000  00000+0  00000+0 0  9999", "line2": "2 54027   0.0238 335.9527 0001440 285.2083 218.9464  1.00271358 12086"}}, "geometry": {"type": "Point", "coordinates": [31.596140344002922, 0.03950022952087216]}}, {"type": "Feature", "properties": {"norad_id": 54243, "name": "GALAXY 31 (G-31)", "group": "intelsat", "lat": 0.020957126183637573, "lon": 39.51785208387088, "alt_km": 35789.090968744444, "timestamp": "2025-12-17T04:57:44.067904+00:00", "meta": {"OBJECT_NAME": "GALAXY 31 (G-31)", "OBJECT_ID": "2022-153A", "EPOCH": "2025-12-16T16:12:22.196160", "MEAN_MOTION": 1.00271723, "ECCENTRICITY": 0.00014666, "INCLINATION": 0.0164, "RA_OF_ASC_NODE": 21.1296, "ARG_OF_PERICENTER": 259.4145, "MEAN_ANOMALY": 287.106, "EPHEMERIS_TYPE": 0, "CLASSIFICATION_TYPE": "U", "NORAD_CAT_ID": 54243, "ELEMENT_SET_NO": 999, "REV_AT_EPOCH": 530, "BSTAR": 0, "MEAN_MOTION_DOT": 0, "MEAN_MOTION_DDOT": 0}, "tle": {"line1": "1 54243U 22153A   25350.67525690  .00000000  00000+0  00000+0 0  9994", "line2": "2 54243   0.0164  21.1296 0001466 259.4145 287.1060  1.00271723  5304"}}, "geometry": {"type": "Point", "coordinates": [39.51785208387088, 0.020957126183637573]}}, {"type": "Feature", "properties": {"norad_id": 54244, "name": "GALAXY 32 (G-32)", "group": "intelsat", "lat": 0.03420723766266108, "lon": 69.53568796693281, "alt_km": 35790.24127375907, "timestamp": "2025-12-17T04:57:44.067915+00:00", "meta": {"OBJECT_NAME": "GALAXY 32 (G-32)", "OBJECT_ID": "2022-153B", "EPOCH": "2025-12-16T09:02:30.087168", "MEAN_MOTION": 1.00271706, "ECCENTRICITY": 0.00025483, "INCLINATION": 0.0098, "RA_OF_ASC_NODE": 331.441, "ARG_OF_PERICENTER": 345.8415, "MEAN_ANOMALY": 172.6123, "EPHEMERIS_TYPE": 0, "CLASSIFICATION_TYPE": "U", "NORAD_CAT_ID": 54244, "ELEMENT_SET_NO": 999, "REV_AT_EPOCH": 1131, "BSTAR": 0, "MEAN_MOTION_DOT": -1.51e-06, "MEAN_MOTION_DDOT": 0}, "tle": {"line1": "1 54244U 22153B   25350.37673712 -.00000151  00000+0  00000+0 0  9999", "line2": "2 54244   0.0098 331.4410 0002548 345.8415 172.6123  1.00271706 11315"}}, "geometry": {"type": "Point", "coordinates": [69.53568796693281, 0.03420723766266108]}}, {"type": "Feature", "properties": {"norad_id": 54741, "name": "GALAXY 35 (G-35)", "group": "intelsat", "lat": 0.039843113627149256, "lon": 67.39616937608153, "alt_km": 35795.55017374187, "timestamp": "2025-12-17T04:57:44.067935+00:00", "meta": {"OBJECT_NAME": "GALAXY 35 (G-35)", "OBJECT_ID": "2022-170A", "EPOCH": "2025-12-16T09:02:06.067968", "MEAN_MOTION": 1.00269185, "ECCENTRICITY": 0.00022557, "INCLINATION": 0.0168, "RA_OF_ASC_NODE": 359.4388, "ARG_OF_PERICENTER": 272.3314, "MEAN_ANOMALY": 215.9085, "EPHEMERIS_TYPE": 0, "CLASSIFICATION_TYPE": "U", "NORAD_CAT_ID": 54741, "ELEMENT_SET_NO": 999, "REV_AT_EPOCH": 1106, "BSTAR": 0, "MEAN_MOTION_DOT": 0, "MEAN_MOTION_DDOT": 0}, "tle": {"line1": "1 54741U 22170A   25350.37645912  .00000000  00000+0  00000+0 0  9993", "line2": "2 54741   0.0168 359.4388 0002255 272.3314 215.9085  1.00269185 11064"}}, "geometry": {"type": "Point", "coordinates": [67.39616937608153, 0.039843113627149256]}}, {"type": "Feature", "properties": {"norad_id": 54742, "name": "GALAXY 36 (G-36)", "group": "intelsat", "lat": 0.018343527501144322, "lon": 71.5135258074745, "alt_km": 35786.39650135382, "timestamp": "2025-12-17T04:57:44.067946+00:00", "meta": {"OBJECT_NAME": "GALAXY 36 (G-36)", "OBJECT_ID": "2022-170B", "EPOCH": "2025-12-16T14:38:44.933856", "MEAN_MOTION": 1.00271369, "ECCENTRICITY": 3.152e-05, "INCLINATION": 0.0154, "RA_OF_ASC_NODE": 268.8557, "ARG_OF_PERICENTER": 65.6179, "MEAN_ANOMALY": 241.715, "EPHEMERIS_TYPE": 0, "CLASSIFICATION_TYPE": "U", "NORAD_CAT_ID": 54742, "ELEMENT_SET_NO": 999, "REV_AT_EPOCH": 1094, "BSTAR": 0, "MEAN_MOTION_DOT": -1.61e-06, "MEAN_MOTION_DDOT": 0}, "tle": {"line1": "1 54742U 22170B   25350.61024229 -.00000161  00000+0  00000+0 0  9992", "line2": "2 54742   0.0154 268.8557 0000315  65.6179 241.7150  1.00271369 10941"}}, "geometry": {"type": "Point", "coordinates": [71.5135258074745, 0.018343527501144322]}}, {"type": "Feature", "properties": {"norad_id": 57493, "name": "GALAXY 37 (G-37)", "group": "intelsat", "lat": 0.005521196786074974, "lon": 33.5414187925879, "alt_km": 35790.28405209626, "timestamp": "2025-12-17T04:57:44.067957+00:00", "meta": {"OBJECT_NAME": "GALAXY 37 (G-37)", "OBJECT_ID": "2023-112A", "EPOCH": "2025-12-15T23:03:25.663680", "MEAN_MOTION": 1.00272925, "ECCENTRICITY": 0.00019988, "INCLINATION": 0.0242, "RA_OF_ASC_NODE": 56.2601, "ARG_OF_PERICENTER": 214.3075, "MEAN_ANOMALY": 33.1555, "EPHEMERIS_TYPE": 0, "CLASSIFICATION_TYPE": "U", "NORAD_CAT_ID": 57493, "ELEMENT_SET_NO": 999, "REV_AT_EPOCH": 870, "BSTAR": 0, "MEAN_MOTION_DOT": 7e-07, "MEAN_MOTION_DDOT": 0}, "tle": {"line1": "1 57493U 23112A   25349.96071370  .00000070  00000+0  00000+0 0  9998", "line2": "2 57493   0.0242  56.2601 0001998 214.3075  33.1555  1.00272925  8702"}}, "geometry": {"type": "Point", "coordinates": [33.5414187925879, 0.005521196786074974]}}]}